[{"OBJECT_NAME":"WEILAI 1R","OBJECT_ID":"2019-093F","EPOCH":"2026-03-09T22:33:48.244608","MEAN_MOTION":14.997592,"ECCENTRICITY":0.00116762,"INCLINATION":97.7939,"RA_OF_ASC_NODE":158.7373,"ARG_OF_PERICENTER":23.5076,"MEAN_ANOMALY":336.6679,"EPHEMERIS_TYPE":0,"CLASSIFICATION_TYPE":"U","NORAD_CAT_ID":44884,"ELEMENT_SET_NO":999,"REV_AT_EPOCH":33754,"BSTAR":0.00050142794,"MEAN_MOTION_DOT":6.146e-5,"MEAN_MOTION_DDOT":0},{"OBJECT_NAME":"STARLINK-5288","OBJECT_ID":"2023-010AQ","EPOCH":"2026-03-09T22:12:42.597792","MEAN_MOTION":14.98341894,"ECCENTRICITY":0.00026057,"INCLINATION":70.0036,"RA_OF_ASC_NODE":4.0244,"ARG_OF_PERICENTER":234.2915,"MEAN_ANOMALY":125.8002,"EPHEMERIS_TYPE":0,"CLASSIFICATION_TYPE":"U","NORAD_CAT_ID":55307,"ELEMENT_SET_NO":999,"REV_AT_EPOCH":17380,"BSTAR":2.9119841e-5,"MEAN_MOTION_DOT":2.55e-6,"MEAN_MOTION_DDOT":0}]
